<?xml version="1.0" encoding="UTF-8"?>
<ndm xmlns:xsi="http://www.w3.org/2001/XMLSchema-instance" xsi:noNamespaceSchemaLocation="https://sanaregistry.org/r/ndmxml_unqualified/ndmxml-2.0.0-master-2.0.xsd">
<omm id="CCSDS_OMM_VERS" version="2.0">
<header><CREATION_DATE/><ORIGINATOR/></header><body><segment><metadata><OBJECT_NAME>IRIDIUM 126</OBJECT_NAME><OBJECT_ID>2017-039G</OBJECT_ID><CENTER_NAME>EARTH</CENTER_NAME><REF_FRAME>TEME</REF_FRAME><TIME_SYSTEM>UTC</TIME_SYSTEM><MEAN_ELEMENT_THEORY>SGP4</MEAN_ELEMENT_THEORY></metadata><data><meanElements><EPOCH>2025-11-26T19:40:42.727008</EPOCH><MEAN_MOTION>14.34222135</MEAN_MOTION><ECCENTRICITY>.0001942</ECCENTRICITY><INCLINATION>86.3965</INCLINATION><RA_OF_ASC_NODE>78.2406</RA_OF_ASC_NODE><ARG_OF_PERICENTER>92.3971</ARG_OF_PERICENTER><MEAN_ANOMALY>267.7448</MEAN_ANOMALY></meanElements><tleParameters><EPHEMERIS_TYPE>0</EPHEMERIS_TYPE><CLASSIFICATION_TYPE>U</CLASSIFICATION_TYPE><NORAD_CAT_ID>42809</NORAD_CAT_ID><ELEMENT_SET_NO>999</ELEMENT_SET_NO><REV_AT_EPOCH>44094</REV_AT_EPOCH><BSTAR>.12835E-3</BSTAR><MEAN_MOTION_DOT>.379E-5</MEAN_MOTION_DOT><MEAN_MOTION_DDOT>0</MEAN_MOTION_DDOT></tleParameters></data></segment></body></omm>
<omm id="CCSDS_OMM_VERS" version="2.0">
<header><CREATION_DATE/><ORIGINATOR/></header><body><segment><metadata><OBJECT_NAME>IRIDIUM 124</OBJECT_NAME><OBJECT_ID>2017-039H</OBJECT_ID><CENTER_NAME>EARTH</CENTER_NAME><REF_FRAME>TEME</REF_FRAME><TIME_SYSTEM>UTC</TIME_SYSTEM><MEAN_ELEMENT_THEORY>SGP4</MEAN_ELEMENT_THEORY></metadata><data><meanElements><EPOCH>2025-11-27T02:12:02.615616</EPOCH><MEAN_MOTION>14.43279928</MEAN_MOTION><ECCENTRICITY>.0002106</ECCENTRICITY><INCLINATION>86.4510</INCLINATION><RA_OF_ASC_NODE>14.8500</RA_OF_ASC_NODE><ARG_OF_PERICENTER>99.9048</ARG_OF_PERICENTER><MEAN_ANOMALY>260.2390</MEAN_ANOMALY></meanElements><tleParameters><EPHEMERIS_TYPE>0</EPHEMERIS_TYPE><CLASSIFICATION_TYPE>U</CLASSIFICATION_TYPE><NORAD_CAT_ID>42810</NORAD_CAT_ID><ELEMENT_SET_NO>999</ELEMENT_SET_NO><REV_AT_EPOCH>44596</REV_AT_EPOCH><BSTAR>.12797E-3</BSTAR><MEAN_MOTION_DOT>.451E-5</MEAN_MOTION_DOT><MEAN_MOTION_DDOT>0</MEAN_MOTION_DDOT></tleParameters></data></segment></body></omm>
<omm id="CCSDS_OMM_VERS" version="2.0">
<header><CREATION_DATE/><ORIGINATOR/></header><body><segment><metadata><OBJECT_NAME>IRIDIUM 128</OBJECT_NAME><OBJECT_ID>2017-039J</OBJECT_ID><CENTER_NAME>EARTH</CENTER_NAME><REF_FRAME>TEME</REF_FRAME><TIME_SYSTEM>UTC</TIME_SYSTEM><MEAN_ELEMENT_THEORY>SGP4</MEAN_ELEMENT_THEORY></metadata><data><meanElements><EPOCH>2025-11-26T22:48:18.607104</EPOCH><MEAN_MOTION>14.34216762</MEAN_MOTION><ECCENTRICITY>.0002103</ECCENTRICITY><INCLINATION>86.3950</INCLINATION><RA_OF_ASC_NODE>109.7195</RA_OF_ASC_NODE><ARG_OF_PERICENTER>104.0656</ARG_OF_PERICENTER><MEAN_ANOMALY>256.0773</MEAN_ANOMALY></meanElements><tleParameters><EPHEMERIS_TYPE>0</EPHEMERIS_TYPE><CLASSIFICATION_TYPE>U</CLASSIFICATION_TYPE><NORAD_CAT_ID>42811</NORAD_CAT_ID><ELEMENT_SET_NO>999</ELEMENT_SET_NO><REV_AT_EPOCH>44099</REV_AT_EPOCH><BSTAR>.14173E-3</BSTAR><MEAN_MOTION_DOT>.417E-5</MEAN_MOTION_DOT><MEAN_MOTION_DDOT>0</MEAN_MOTION_DDOT></tleParameters></data></segment></body></omm>
<omm id="CCSDS_OMM_VERS" version="2.0">
<header><CREATION_DATE/><ORIGINATOR/></header><body><segment><metadata><OBJECT_NAME>IRIDIUM 121</OBJECT_NAME><OBJECT_ID>2017-039K</OBJECT_ID><CENTER_NAME>EARTH</CENTER_NAME><REF_FRAME>TEME</REF_FRAME><TIME_SYSTEM>UTC</TIME_SYSTEM><MEAN_ELEMENT_THEORY>SGP4</MEAN_ELEMENT_THEORY></metadata><data><meanElements><EPOCH>2025-11-26T20:08:06.936288</EPOCH><MEAN_MOTION>14.34218348</MEAN_MOTION><ECCENTRICITY>.0002177</ECCENTRICITY><INCLINATION>86.3966</INCLINATION><RA_OF_ASC_NODE>78.2588</RA_OF_ASC_NODE><ARG_OF_PERICENTER>97.3006</ARG_OF_PERICENTER><MEAN_ANOMALY>262.8437</MEAN_ANOMALY></meanElements><tleParameters><EPHEMERIS_TYPE>0</EPHEMERIS_TYPE><CLASSIFICATION_TYPE>U</CLASSIFICATION_TYPE><NORAD_CAT_ID>42812</NORAD_CAT_ID><ELEMENT_SET_NO>999</ELEMENT_SET_NO><REV_AT_EPOCH>44082</REV_AT_EPOCH><BSTAR>.69187E-4</BSTAR><MEAN_MOTION_DOT>.214E-5</MEAN_MOTION_DOT><MEAN_MOTION_DDOT>0</MEAN_MOTION_DDOT></tleParameters></data></segment></body></omm>
<omm id="CCSDS_OMM_VERS" version="2.0">
<header><CREATION_DATE/><ORIGINATOR/></header><body><segment><metadata><OBJECT_NAME>IRIDIUM 133</OBJECT_NAME><OBJECT_ID>2017-061A</OBJECT_ID><CENTER_NAME>EARTH</CENTER_NAME><REF_FRAME>TEME</REF_FRAME><TIME_SYSTEM>UTC</TIME_SYSTEM><MEAN_ELEMENT_THEORY>SGP4</MEAN_ELEMENT_THEORY></metadata><data><meanElements><EPOCH>2025-11-26T21:53:30.583392</EPOCH><MEAN_MOTION>14.34219191</MEAN_MOTION><ECCENTRICITY>.0002052</ECCENTRICITY><INCLINATION>86.3950</INCLINATION><RA_OF_ASC_NODE>109.8481</RA_OF_ASC_NODE><ARG_OF_PERICENTER>95.9833</ARG_OF_PERICENTER><MEAN_ANOMALY>264.1596</MEAN_ANOMALY></meanElements><tleParameters><EPHEMERIS_TYPE>0</EPHEMERIS_TYPE><CLASSIFICATION_TYPE>U</CLASSIFICATION_TYPE><NORAD_CAT_ID>42955</NORAD_CAT_ID><ELEMENT_SET_NO>999</ELEMENT_SET_NO><REV_AT_EPOCH>42578</REV_AT_EPOCH><BSTAR>.57598E-4</BSTAR><MEAN_MOTION_DOT>.181E-5</MEAN_MOTION_DOT><MEAN_MOTION_DDOT>0</MEAN_MOTION_DDOT></tleParameters></data></segment></body></omm>
<omm id="CCSDS_OMM_VERS" version="2.0">
<header><CREATION_DATE/><ORIGINATOR/></header><body><segment><metadata><OBJECT_NAME>IRIDIUM 100</OBJECT_NAME><OBJECT_ID>2017-061B</OBJECT_ID><CENTER_NAME>EARTH</CENTER_NAME><REF_FRAME>TEME</REF_FRAME><TIME_SYSTEM>UTC</TIME_SYSTEM><MEAN_ELEMENT_THEORY>SGP4</MEAN_ELEMENT_THEORY></metadata><data><meanElements><EPOCH>2025-11-26T21:44:22.587936</EPOCH><MEAN_MOTION>14.34218992</MEAN_MOTION><ECCENTRICITY>.000191</ECCENTRICITY><INCLINATION>86.3949</INCLINATION><RA_OF_ASC_NODE>109.7742</RA_OF_ASC_NODE><ARG_OF_PERICENTER>93.8036</ARG_OF_PERICENTER><MEAN_ANOMALY>266.3378</MEAN_ANOMALY></meanElements><tleParameters><EPHEMERIS_TYPE>0</EPHEMERIS_TYPE><CLASSIFICATION_TYPE>U</CLASSIFICATION_TYPE><NORAD_CAT_ID>42956</NORAD_CAT_ID><ELEMENT_SET_NO>999</ELEMENT_SET_NO><REV_AT_EPOCH>42578</REV_AT_EPOCH><BSTAR>.14453E-3</BSTAR><MEAN_MOTION_DOT>.425E-5</MEAN_MOTION_DOT><MEAN_MOTION_DDOT>0</MEAN_MOTION_DDOT></tleParameters></data></segment></body></omm>
<omm id="CCSDS_OMM_VERS" version="2.0">
<header><CREATION_DATE/><ORIGINATOR/></header><body><segment><metadata><OBJECT_NAME>IRIDIUM 122</OBJECT_NAME><OBJECT_ID>2017-061C</OBJECT_ID><CENTER_NAME>EARTH</CENTER_NAME><REF_FRAME>TEME</REF_FRAME><TIME_SYSTEM>UTC</TIME_SYSTEM><MEAN_ELEMENT_THEORY>SGP4</MEAN_ELEMENT_THEORY></metadata><data><meanElements><EPOCH>2025-11-26T20:58:42.284064</EPOCH><MEAN_MOTION>14.34216864</MEAN_MOTION><ECCENTRICITY>.0001948</ECCENTRICITY><INCLINATION>86.3950</INCLINATION><RA_OF_ASC_NODE>109.7871</RA_OF_ASC_NODE><ARG_OF_PERICENTER>94.0331</ARG_OF_PERICENTER><MEAN_ANOMALY>266.1087</MEAN_ANOMALY></meanElements><tleParameters><EPHEMERIS_TYPE>0</EPHEMERIS_TYPE><CLASSIFICATION_TYPE>U</CLASSIFICATION_TYPE><NORAD_CAT_ID>42957</NORAD_CAT_ID><ELEMENT_SET_NO>999</ELEMENT_SET_NO><REV_AT_EPOCH>42578</REV_AT_EPOCH><BSTAR>.68522E-4</BSTAR><MEAN_MOTION_DOT>.212E-5</MEAN_MOTION_DOT><MEAN_MOTION_DDOT>0</MEAN_MOTION_DDOT></tleParameters></data></segment></body></omm>
<omm id="CCSDS_OMM_VERS" version="2.0">
<header><CREATION_DATE/><ORIGINATOR/></header><body><segment><metadata><OBJECT_NAME>IRIDIUM 129</OBJECT_NAME><OBJECT_ID>2017-061D</OBJECT_ID><CENTER_NAME>EARTH</CENTER_NAME><REF_FRAME>TEME</REF_FRAME><TIME_SYSTEM>UTC</TIME_SYSTEM><MEAN_ELEMENT_THEORY>SGP4</MEAN_ELEMENT_THEORY></metadata><data><meanElements><EPOCH>2025-11-26T21:35:14.657280</EPOCH><MEAN_MOTION>14.34217954</MEAN_MOTION><ECCENTRICITY>.0002193</ECCENTRICITY><INCLINATION>86.3952</INCLINATION><RA_OF_ASC_NODE>109.8414</RA_OF_ASC_NODE><ARG_OF_PERICENTER>83.5296</ARG_OF_PERICENTER><MEAN_ANOMALY>276.6149</MEAN_ANOMALY></meanElements><tleParameters><EPHEMERIS_TYPE>0</EPHEMERIS_TYPE><CLASSIFICATION_TYPE>U</CLASSIFICATION_TYPE><NORAD_CAT_ID>42958</NORAD_CAT_ID><ELEMENT_SET_NO>999</ELEMENT_SET_NO><REV_AT_EPOCH>42580</REV_AT_EPOCH><BSTAR>.47318E-4</BSTAR><MEAN_MOTION_DOT>.152E-5</MEAN_MOTION_DOT><MEAN_MOTION_DDOT>0</MEAN_MOTION_DDOT></tleParameters></data></segment></body></omm>

</ndm>
