IRIDIUM 126             
1 42809U 17039G   25330.81993897  .00000379  00000+0  12835-3 0  9990
2 42809  86.3965  78.2406 0001942  92.3971 267.7448 14.34222135440942
IRIDIUM 124             
1 42810U 17039H   25331.09169694  .00000451  00000+0  12797-3 0  9991
2 42810  86.4510  14.8500 0002106  99.9048 260.2390 14.43279928445966
IRIDIUM 128             
1 42811U 17039J   25330.95021536  .00000417  00000+0  14173-3 0  9990
2 42811  86.3950 109.7195 0002103 104.0656 256.0773 14.34216762440991
IRIDIUM 121             
1 42812U 17039K   25330.83896917  .00000214  00000+0  69187-4 0  9992
2 42812  86.3966  78.2588 0002177  97.3006 262.8437 14.34218348440825
IRIDIUM 133             
1 42955U 17061A   25330.91215953  .00000181  00000+0  57598-4 0  9995
2 42955  86.3950 109.8481 0002052  95.9833 264.1596 14.34219191425789
IRIDIUM 100             
1 42956U 17061B   25330.90581699  .00000425  00000+0  14453-3 0  9991
2 42956  86.3949 109.7742 0001910  93.8036 266.3378 14.34218992425781
IRIDIUM 122             
1 42957U 17061C   25330.87410051  .00000212  00000+0  68522-4 0  9992
2 42957  86.3950 109.7871 0001948  94.0331 266.1087 14.34216864425780
IRIDIUM 129             
1 42958U 17061D   25330.89947520  .00000152  00000+0  47318-4 0  9994
2 42958  86.3952 109.8414 0002193  83.5296 276.6149 14.34217954425802
